"AirportID","Name","City","Country","IATA","ICAO","Latitude","Longitude","Altitude","Timezone","DST","TzDB","Type","Source"
21,"Sault Ste Marie Airport","Sault Sainte Marie","Canada","YAM","CYAM",46.4850006103516,-84.5093994140625,630,"-5","A","America/Toronto","airport","OurAirports"
24,"St. Anthony Airport","St. Anthony","Canada","YAY","CYAY",51.3918991089,-56.0830993652,108,"-3.5","A","America/St_Johns","airport","OurAirports"
25,"Tofino / Long Beach Airport","Tofino","Canada","YAZ","CYAZ",49.079833,-125.775583,80,"-8","A","America/Vancouver","airport","OurAirports"
26,"Kugaaruk Airport","Pelly Bay","Canada","YBB","CYBB",68.534401,-89.808098,56,"-7","A","America/Edmonton","airport","OurAirports"
27,"Baie Comeau Airport","Baie Comeau","Canada","YBC","CYBC",49.1324996948242,-68.2043991088867,71,"-5","A","America/Toronto","airport","OurAirports"
28,"CFB Bagotville","Bagotville","Canada","YBG","CYBG",48.3306007385254,-70.9963989257812,522,"-5","A","America/Toronto","airport","OurAirports"
29,"Baker Lake Airport","Baker Lake","Canada","YBK","CYBK",64.2988967896,-96.077796936,59,"-6","A","America/Winnipeg","airport","OurAirports"
30,"Campbell River Airport","Campbell River","Canada","YBL","CYBL",49.9508018493652,-125.271003723145,346,"-8","A","America/Vancouver","airport","OurAirports"
31,"Brandon Municipal Airport","Brandon","Canada","YBR","CYBR",49.91,-99.951897,1343,"-6","A","America/Winnipeg","airport","OurAirports"
32,"Cambridge Bay Airport","Cambridge Bay","Canada","YCB","CYCB",69.1081008911,-105.138000488,90,"-7","A","America/Edmonton","airport","OurAirports"
33,"Nanaimo Airport","Nanaimo","Canada","YCD","CYCD",49.0549702249,-123.869862556,92,"-8","A","America/Vancouver","airport","OurAirports"
34,"Castlegar/West Kootenay Regional Airport","Castlegar","Canada","YCG","CYCG",49.2963981628,-117.632003784,1624,"-8","A","America/Vancouver","airport","OurAirports"
35,"Miramichi Airport","Chatham","Canada","YCH","CYCH",47.007801,-65.449203,108,"-4","A","America/Halifax","airport","OurAirports"
36,"Charlo Airport","Charlo","Canada","YCL","CYCL",47.990799,-66.330299,132,"-4","A","America/Halifax","airport","OurAirports"
37,"Kugluktuk Airport","Coppermine","Canada","YCO","CYCO",67.816704,-115.143997,74,"-7","A","America/Edmonton","airport","OurAirports"
38,"Coronation Airport","Coronation","Canada","YCT","CYCT",52.0750007629,-111.444999695,2595,"-7","A","America/Edmonton","airport","OurAirports"
39,"Chilliwack Airport","Chilliwack","Canada","YCW","CYCW",49.1528015137,-121.939002991,32,"-8","A","America/Vancouver","airport","OurAirports"
40,"Clyde River Airport","Clyde River","Canada","YCY","CYCY",70.4860992432,-68.5167007446,87,"-5","A","America/Toronto","airport","OurAirports"
41,"Coral Harbour Airport","Coral Harbour","Canada","YZS","CYZS",64.1932983398,-83.3593978882,210,"-5","A","America/Coral_Harbour","airport","OurAirports"
42,"Dawson City Airport","Dawson","Canada","YDA","CYDA",64.043098449707,-139.128005981445,1215,"-8","A","America/Vancouver","airport","OurAirports"
43,"Burwash Airport","Burwash","Canada","YDB","CYDB",61.3711013793945,-139.041000366211,2647,"-8","A","America/Vancouver","airport","OurAirports"
45,"Deer Lake Airport","Deer Lake","Canada","YDF","CYDF",49.2108001708984,-57.3913993835449,72,"-3.5","A","America/St_Johns","airport","OurAirports"
46,"Dease Lake Airport","Dease Lake","Canada","YDL","CYDL",58.4221992493,-130.031997681,2600,"-8","A","America/Vancouver","airport","OurAirports"
47,"Dauphin Barker Airport","Dauphin","Canada","YDN","CYDN",51.1007995605469,-100.052001953125,999,"-6","A","America/Winnipeg","airport","OurAirports"
48,"Dawson Creek Airport","Dawson Creek","Canada","YDQ","CYDQ",55.7422981262207,-120.182998657227,2148,"-7","A","America/Dawson_Creek","airport","OurAirports"
49,"Edmonton International Airport","Edmonton","Canada","YEG","CYEG",53.3097000122,-113.580001831,2373,"-7","A","America/Edmonton","airport","OurAirports"
50,"Arviat Airport","Eskimo Point","Canada","YEK","CYEK",61.0942001343,-94.0708007812,32,"-6","A","America/Winnipeg","airport","OurAirports"
51,"Estevan Airport","Estevan","Canada","YEN","CYEN",49.2103004456,-102.966003418,1905,"-6","N","America/Regina","airport","OurAirports"
52,"Edson Airport","Edson","Canada","YET","CYET",53.5788993835,-116.464996338,3043,"-7","A","America/Edmonton","airport","OurAirports"
53,"Eureka Airport","Eureka","Canada","YEU","CYEU",79.9946975708,-85.814201355,256,"-6","A","America/Winnipeg","airport","OurAirports"
54,"Inuvik Mike Zubko Airport","Inuvik","Canada","YEV","CYEV",68.3041992188,-133.483001709,224,"-7","A","America/Edmonton","airport","OurAirports"
55,"Iqaluit Airport","Iqaluit","Canada","YFB","CYFB",63.756402,-68.555801,110,"-5","A","America/Toronto","airport","OurAirports"
56,"Fredericton Airport","Fredericton","Canada","YFC","CYFC",45.8689002990723,-66.5372009277344,68,"-4","A","America/Halifax","airport","OurAirports"
57,"Forestville Airport","Forestville","Canada","YFE","CYFE",48.7461013793945,-69.0971984863281,293,"-5","A","America/Toronto","airport","OurAirports"
58,"Flin Flon Airport","Flin Flon","Canada","YFO","CYFO",54.6781005859375,-101.681999206543,997,"-6","A","America/Winnipeg","airport","OurAirports"
59,"Fort Resolution Airport","Fort Resolution","Canada","YFR","CYFR",61.1808013916,-113.690002441,526,"-7","A","America/Edmonton","airport","OurAirports"
60,"Fort Simpson Airport","Fort Simpson","Canada","YFS","CYFS",61.7602005004883,-121.236999511719,555,"-7","A","America/Edmonton","airport","OurAirports"
61,"Kingston Norman Rogers Airport","Kingston","Canada","YGK","CYGK",44.2252998352051,-76.5969009399414,305,"-5","A","America/Toronto","airport","OurAirports"
62,"La Grande Rivière Airport","La Grande Riviere","Canada","YGL","CYGL",53.625301361084,-77.7042007446289,639,"-5","A","America/Toronto","airport","OurAirports"
63,"Gaspé (Michel-Pouliot) Airport","Gaspe","Canada","YGP","CYGP",48.7752990723,-64.4785995483,112,"-5","A","America/Toronto","airport","OurAirports"
64,"Geraldton Greenstone Regional Airport","Geraldton","Canada","YGQ","CYGQ",49.7783012390137,-86.9393997192383,1144,"-5","A","America/Toronto","airport","OurAirports"
65,"Îles-de-la-Madeleine Airport","Iles De La Madeleine","Canada","YGR","CYGR",47.4247016906738,-61.7780990600586,35,"-5","A","America/Toronto","airport","OurAirports"
66,"Hudson Bay Airport","Hudson Bay","Canada","YHB","CYHB",52.8166999817,-102.310997009,1175,"-6","N","America/Regina","airport","OurAirports"
67,"Dryden Regional Airport","Dryden","Canada","YHD","CYHD",49.831699,-92.744202,1354,"-6","A","America/Winnipeg","airport","OurAirports"
68,"Ulukhaktok Holman Airport","Holman Island","Canada","YHI","CYHI",70.7628021240234,-117.805999755859,117,"-7","A","America/Edmonton","airport","OurAirports"
69,"Gjoa Haven Airport","Gjoa Haven","Canada","YHK","CYHK",68.635597229,-95.8497009277,152,"-7","A","America/Edmonton","airport","OurAirports"
70,"John C. Munro Hamilton International Airport","Hamilton","Canada","YHM","CYHM",43.1735992432,-79.9349975586,780,"-5","A","America/Toronto","airport","OurAirports"
71,"Montréal / Saint-Hubert Airport","Montreal","Canada","YHU","CYHU",45.5175018311,-73.4169006348,90,"-5","A","America/Toronto","airport","OurAirports"
72,"Hay River / Merlyn Carter Airport","Hay River","Canada","YHY","CYHY",60.8396987915,-115.782997131,541,"-7","A","America/Edmonton","airport","OurAirports"
73,"Halifax / Stanfield International Airport","Halifax","Canada","YHZ","CYHZ",44.8807983398,-63.5085983276,477,"-4","A","America/Halifax","airport","OurAirports"
74,"Atikokan Municipal Airport","Atikokan","Canada","YIB","CYIB",48.7738990784,-91.6386032104,1408,"-5","A","America/Coral_Harbour","airport","OurAirports"
75,"Pond Inlet Airport","Pond Inlet","Canada","YIO","CYIO",72.6832962036,-77.9666976929,181,"-5","A","America/Toronto","airport","OurAirports"
76,"St Jean Airport","St. Jean","Canada","YJN","CYJN",45.2943992614746,-73.2810974121094,136,"-5","A","America/Toronto","airport","OurAirports"
77,"Stephenville Airport","Stephenville","Canada","YJT","CYJT",48.5442008972168,-58.5499992370605,84,"-3.5","A","America/St_Johns","airport","OurAirports"
78,"Kamloops Airport","Kamloops","Canada","YKA","CYKA",50.7022018433,-120.444000244,1133,"-8","A","America/Vancouver","airport","OurAirports"
79,"Waterloo Airport","Waterloo","Canada","YKF","CYKF",43.4608001709,-80.3786010742,1055,"-5","A","America/Toronto","airport","OurAirports"
80,"Schefferville Airport","Schefferville","Canada","YKL","CYKL",54.8053016662598,-66.8052978515625,1709,"-5","A","America/Toronto","airport","OurAirports"
81,"Kindersley Airport","Kindersley","Canada","YKY","CYKY",51.5175018311,-109.180999756,2277,"-6","N","America/Regina","airport","OurAirports"
82,"Buttonville Municipal Airport","Toronto","Canada","YKZ","CYKZ",43.8622016906738,-79.370002746582,650,"-5","A","America/Toronto","airport","OurAirports"
83,"Chapleau Airport","Chapleau","Canada","YLD","CYLD",47.8199996948242,-83.3467025756836,1470,"-5","A","America/Toronto","airport","OurAirports"
84,"Meadow Lake Airport","Meadow Lake","Canada","YLJ","CYLJ",54.125301361084,-108.523002624512,1576,"-6","N","America/Regina","airport","OurAirports"
85,"Lloydminster Airport","Lloydminster","Canada","YLL","CYLL",53.3092002868652,-110.072998046875,2193,"-7","A","America/Edmonton","airport","OurAirports"
86,"Alert Airport","Alert","Canada","YLT","CYLT",82.5177993774,-62.2806015015,100,"-5","A","America/Toronto","airport","OurAirports"
87,"Kelowna International Airport","Kelowna","Canada","YLW","CYLW",49.9561004639,-119.377998352,1421,"-8","A","America/Vancouver","airport","OurAirports"
88,"Mayo Airport","Mayo","Canada","YMA","CYMA",63.6164016723633,-135.86799621582,1653,"-8","A","America/Vancouver","airport","OurAirports"
89,"Moose Jaw Air Vice Marshal C. M. McEwen Airport","Moose Jaw","Canada","YMJ","CYMJ",50.3302993774414,-105.55899810791,1892,"-6","N","America/Regina","airport","OurAirports"
90,"Fort McMurray Airport","Fort Mcmurray","Canada","YMM","CYMM",56.653301239,-111.222000122,1211,"-7","A","America/Edmonton","airport","OurAirports"
91,"Moosonee Airport","Moosonee","Canada","YMO","CYMO",51.2910995483398,-80.6078033447266,30,"-5","A","America/Toronto","airport","OurAirports"
92,"Maniwaki Airport","Maniwaki","Canada","YMW","CYMW",46.2728004456,-75.9906005859,656,"-5","A","America/Toronto","airport","OurAirports"
93,"Montreal International (Mirabel) Airport","Montreal","Canada","YMX","CYMX",45.679501,-74.038696,270,"-5","A","America/Toronto","airport","OurAirports"
94,"Natashquan Airport","Natashquan","Canada","YNA","CYNA",50.189998626709,-61.7891998291016,39,"-5","A","America/Toronto","airport","OurAirports"
95,"Ottawa / Gatineau Airport","Gatineau","Canada","YND","CYND",45.5217018127,-75.5635986328,211,"-5","A","America/Toronto","airport","OurAirports"
96,"Matagami Airport","Matagami","Canada","YNM","CYNM",49.7616996765137,-77.8028030395508,918,"-5","A","America/Toronto","airport","OurAirports"
97,"Old Crow Airport","Old Crow","Canada","YOC","CYOC",67.5706024169922,-139.839004516602,824,"-8","A","America/Vancouver","airport","OurAirports"
98,"CFB Cold Lake","Cold Lake","Canada","YOD","CYOD",54.4049987792969,-110.278999328613,1775,"-7","A","America/Edmonton","airport","OurAirports"
99,"High Level Airport","High Level","Canada","YOJ","CYOJ",58.6213989257812,-117.165000915527,1110,"-7","A","America/Edmonton","airport","OurAirports"
100,"Ottawa Macdonald-Cartier International Airport","Ottawa","Canada","YOW","CYOW",45.3224983215332,-75.6691970825195,374,"-5","A","America/Toronto","airport","OurAirports"
101,"Prince Albert Glass Field","Prince Albert","Canada","YPA","CYPA",53.2141990662,-105.672996521,1405,"-6","N","America/Regina","airport","OurAirports"
102,"Peace River Airport","Peace River","Canada","YPE","CYPE",56.226898,-117.446999,1873,"-7","A","America/Edmonton","airport","OurAirports"
103,"Southport Airport","Portage-la-prairie","Canada","YPG","CYPG",49.903099,-98.273817,885,"-6","A","America/Winnipeg","airport","OurAirports"
105,"Pickle Lake Airport","Pickle Lake","Canada","YPL","CYPL",51.4463996887207,-90.2142028808594,1267,"-5","A","America/Coral_Harbour","airport","OurAirports"
106,"Port Menier Airport","Port Menier","Canada","YPN","CYPN",49.8363990783691,-64.2885971069336,167,"-5","A","America/Toronto","airport","OurAirports"
107,"Peterborough Airport","Peterborough","Canada","YPQ","CYPQ",44.2299995422363,-78.3632965087891,628,"-5","A","America/Toronto","airport","OurAirports"
108,"Prince Rupert Airport","Prince Pupert","Canada","YPR","CYPR",54.2860984802,-130.445007324,116,"-8","A","America/Vancouver","airport","OurAirports"
109,"Fort Chipewyan Airport","Fort Chipewyan","Canada","YPY","CYPY",58.7672004699707,-111.116996765137,761,"-7","A","America/Edmonton","airport","OurAirports"
110,"Muskoka Airport","Muskoka","Canada","YQA","CYQA",44.9747009277344,-79.3032989501953,925,"-5","A","America/Toronto","airport","OurAirports"
111,"Quebec Jean Lesage International Airport","Quebec","Canada","YQB","CYQB",46.7911,-71.393303,244,"-5","A","America/Toronto","airport","OurAirports"
112,"Red Deer Regional Airport","Red Deer Industrial","Canada","YQF","CYQF",52.182201385498,-113.893997192383,2968,"-7","A","America/Edmonton","airport","OurAirports"
113,"Windsor Airport","Windsor","Canada","YQG","CYQG",42.2756004333496,-82.9555969238281,622,"-5","A","America/Toronto","airport","OurAirports"
114,"Watson Lake Airport","Watson Lake","Canada","YQH","CYQH",60.1164016723633,-128.822006225586,2255,"-8","A","America/Vancouver","airport","OurAirports"
115,"Kenora Airport","Kenora","Canada","YQK","CYQK",49.7882995605469,-94.3630981445312,1332,"-6","A","America/Winnipeg","airport","OurAirports"
116,"Lethbridge County Airport","Lethbridge","Canada","YQL","CYQL",49.6302986145,-112.800003052,3048,"-7","A","America/Edmonton","airport","OurAirports"
117,"Greater Moncton International Airport","Moncton","Canada","YQM","CYQM",46.1122016906738,-64.678596496582,232,"-4","A","America/Halifax","airport","OurAirports"
119,"Comox Airport","Comox","Canada","YQQ","CYQQ",49.7108001708984,-124.887001037598,84,"-8","A","America/Vancouver","airport","OurAirports"
120,"Regina International Airport","Regina","Canada","YQR","CYQR",50.4319000244141,-104.666000366211,1894,"-6","N","America/Regina","airport","OurAirports"
121,"Thunder Bay Airport","Thunder Bay","Canada","YQT","CYQT",48.371898651123,-89.3238983154297,653,"-5","A","America/Toronto","airport","OurAirports"
122,"Grande Prairie Airport","Grande Prairie","Canada","YQU","CYQU",55.1796989441,-118.885002136,2195,"-7","A","America/Edmonton","airport","OurAirports"
123,"Yorkton Municipal Airport","Yorkton","Canada","YQV","CYQV",51.2647018432617,-102.46199798584,1635,"-6","N","America/Regina","airport","OurAirports"
124,"North Battleford Airport","North Battleford","Canada","YQW","CYQW",52.7691993713379,-108.244003295898,1799,"-6","N","America/Regina","airport","OurAirports"
125,"Gander International Airport","Gander","Canada","YQX","CYQX",48.9369010925293,-54.5680999755859,496,"-3.5","A","America/St_Johns","airport","OurAirports"
126,"Sydney / J.A. Douglas McCurdy Airport","Sydney","Canada","YQY","CYQY",46.1614,-60.047798,203,"-4","A","America/Halifax","airport","OurAirports"
127,"Quesnel Airport","Quesnel","Canada","YQZ","CYQZ",53.0261001586914,-122.51000213623,1789,"-8","A","America/Vancouver","airport","OurAirports"
128,"Resolute Bay Airport","Resolute","Canada","YRB","CYRB",74.7169036865,-94.9693984985,215,"-6","A","America/Winnipeg","airport","OurAirports"
129,"Rivière-du-Loup Airport","Riviere Du Loup","Canada","YRI","CYRI",47.7644004821777,-69.5847015380859,427,"-5","A","America/Toronto","airport","OurAirports"
130,"Roberval Airport","Roberval","Canada","YRJ","CYRJ",48.5200004577637,-72.2656021118164,586,"-5","A","America/Toronto","airport","OurAirports"
131,"Rocky Mountain House Airport","Rocky Mountain House","Canada","YRM","CYRM",52.4296989441,-114.903999329,3244,"-7","A","America/Edmonton","airport","OurAirports"
132,"Rankin Inlet Airport","Rankin Inlet","Canada","YRT","CYRT",62.8114013672,-92.1157989502,94,"-6","A","America/Winnipeg","airport","OurAirports"
133,"Sudbury Airport","Sudbury","Canada","YSB","CYSB",46.625,-80.7988967895508,1141,"-5","A","America/Toronto","airport","OurAirports"
134,"Sherbrooke Airport","Sherbrooke","Canada","YSC","CYSC",45.4385986328125,-71.6913986206055,792,"-5","A","America/Toronto","airport","OurAirports"
135,"Saint John Airport","St. John","Canada","YSJ","CYSJ",45.3161010742188,-65.8902969360352,357,"-4","A","America/Halifax","airport","OurAirports"
136,"Fort Smith Airport","Fort Smith","Canada","YSM","CYSM",60.0203018188477,-111.96199798584,671,"-7","A","America/Edmonton","airport","OurAirports"
137,"Nanisivik Airport","Nanisivik","Canada","YSR","CYSR",72.982201,-84.613602,2106,"-5","A","America/Toronto","airport","OurAirports"
138,"Summerside Airport","Summerside","Canada","YSU","CYSU",46.440601348877,-63.8335990905762,56,"-4","A","America/Halifax","airport","OurAirports"
139,"Sachs Harbour (David Nasogaluak Jr. Saaryuaq) Airport","Sachs Harbour","Canada","YSY","CYSY",71.9938964844,-125.242996216,282,"-7","A","America/Edmonton","airport","OurAirports"
140,"Cape Dorset Airport","Cape Dorset","Canada","YTE","CYTE",64.2300033569,-76.5267028809,164,"-5","A","America/Toronto","airport","OurAirports"
141,"Thompson Airport","Thompson","Canada","YTH","CYTH",55.8011016845703,-97.8641967773438,729,"-6","A","America/Winnipeg","airport","OurAirports"
142,"CFB Trenton","Trenton","Canada","YTR","CYTR",44.1189002990723,-77.5280990600586,283,"-5","A","America/Toronto","airport","OurAirports"
143,"Timmins/Victor M. Power","Timmins","Canada","YTS","CYTS",48.5696983337,-81.376701355,967,"-5","A","America/Toronto","airport","OurAirports"
144,"Billy Bishop Toronto City Centre Airport","Toronto","Canada","YTZ","CYTZ",43.627499,-79.396202,252,"-5","A","America/Toronto","airport","OurAirports"
145,"Tuktoyaktuk Airport","Tuktoyaktuk","Canada","YUB","CYUB",69.4332962036133,-133.026000976562,15,"-7","A","America/Edmonton","airport","OurAirports"
146,"Montreal / Pierre Elliott Trudeau International Airport","Montreal","Canada","YUL","CYUL",45.4706001282,-73.7407989502,118,"-5","A","America/Toronto","airport","OurAirports"
147,"Repulse Bay Airport","Repulse Bay","Canada","YUT","CYUT",66.5214004517,-86.2247009277,80,"-6","A","America/Winnipeg","airport","OurAirports"
148,"Hall Beach Airport","Hall Beach","Canada","YUX","CYUX",68.7761001587,-81.2425,30,"-5","A","America/Toronto","airport","OurAirports"
149,"Rouyn Noranda Airport","Rouyn","Canada","YUY","CYUY",48.2061004638672,-78.8356018066406,988,"-5","A","America/Toronto","airport","OurAirports"
150,"La Ronge Airport","La Ronge","Canada","YVC","CYVC",55.1514015198,-105.262001038,1242,"-6","N","America/Regina","airport","OurAirports"
151,"Vermilion Airport","Vermillion","Canada","YVG","CYVG",53.3558006287,-110.823997498,2025,"-7","A","America/Edmonton","airport","OurAirports"
152,"Qikiqtarjuaq Airport","Broughton Island","Canada","YVM","CYVM",67.5457992554,-64.0314025879,21,"-5","A","America/Toronto","airport","OurAirports"
153,"Val-d'Or Airport","Val D'or","Canada","YVO","CYVO",48.0532989502,-77.7827987671,1107,"-5","A","America/Toronto","airport","OurAirports"
154,"Kuujjuaq Airport","Quujjuaq","Canada","YVP","CYVP",58.0960998535156,-68.4269027709961,129,"-5","A","America/Toronto","airport","OurAirports"
155,"Norman Wells Airport","Norman Wells","Canada","YVQ","CYVQ",65.2816009521484,-126.797996520996,238,"-7","A","America/Edmonton","airport","OurAirports"
156,"Vancouver International Airport","Vancouver","Canada","YVR","CYVR",49.193901062,-123.183998108,14,"-8","A","America/Vancouver","airport","OurAirports"
157,"Buffalo Narrows Airport","Buffalo Narrows","Canada","YVT","CYVT",55.8418998718,-108.417999268,1423,"-6","N","America/Regina","airport","OurAirports"
158,"Wiarton Airport","Wiarton","Canada","YVV","CYVV",44.7458,-81.107201,729,"-5","A","America/Toronto","airport","OurAirports"
159,"Petawawa Airport","Petawawa","Canada","YWA","CYWA",45.9522018432617,-77.3191986083984,427,"-5","A","America/Toronto","airport","OurAirports"
160,"Winnipeg / James Armstrong Richardson International Airport","Winnipeg","Canada","YWG","CYWG",49.9099998474,-97.2398986816,783,"-6","A","America/Winnipeg","airport","OurAirports"
161,"Wabush Airport","Wabush","Canada","YWK","CYWK",52.9219017028809,-66.8644027709961,1808,"-4","A","America/Halifax","airport","OurAirports"
162,"Williams Lake Airport","Williams Lake","Canada","YWL","CYWL",52.1831016541,-122.054000854,3085,"-8","A","America/Vancouver","airport","OurAirports"
163,"Wrigley Airport","Wrigley","Canada","YWY","CYWY",63.209400177002,-123.436996459961,489,"-7","A","America/Edmonton","airport","OurAirports"
164,"Cranbrook/Canadian Rockies International Airport","Cranbrook","Canada","YXC","CYXC",49.610801696777,-115.78199768066,3082,"-7","A","America/Edmonton","airport","OurAirports"
165,"Edmonton City Centre (Blatchford Field) Airport","Edmonton","Canada","YXD","CYXD",53.5724983215,-113.521003723,2202,"-7","A","America/Edmonton","airport","OurAirports"
166,"Saskatoon John G. Diefenbaker International Airport","Saskatoon","Canada","YXE","CYXE",52.1707992553711,-106.699996948242,1653,"-6","N","America/Regina","airport","OurAirports"
167,"Medicine Hat Airport","Medicine Hat","Canada","YXH","CYXH",50.0189018249512,-110.721000671387,2352,"-7","A","America/Edmonton","airport","OurAirports"
168,"Fort St John Airport","Fort Saint John","Canada","YXJ","CYXJ",56.2380981445312,-120.73999786377,2280,"-7","A","America/Dawson_Creek","airport","OurAirports"
169,"Sioux Lookout Airport","Sioux Lookout","Canada","YXL","CYXL",50.113899230957,-91.9052963256836,1258,"-6","A","America/Winnipeg","airport","OurAirports"
170,"Pangnirtung Airport","Pangnirtung","Canada","YXP","CYXP",66.1449966431,-65.7136001587,75,"-5","A","America/Toronto","airport","OurAirports"
171,"Earlton (Timiskaming Regional) Airport","Earlton","Canada","YXR","CYXR",47.6974006546,-79.8473453522,800,"-5","A","America/Toronto","airport","OurAirports"
172,"Prince George Airport","Prince George","Canada","YXS","CYXS",53.8894004822,-122.679000854,2267,"-8","A","America/Vancouver","airport","OurAirports"
173,"Northwest Regional Airport Terrace-Kitimat","Terrace","Canada","YXT","CYXT",54.468498,-128.576009,713,"-8","A","America/Vancouver","airport","OurAirports"
174,"London Airport","London","Canada","YXU","CYXU",43.035599,-81.1539,912,"-5","A","America/Toronto","airport","OurAirports"
175,"Abbotsford Airport","Abbotsford","Canada","YXX","CYXX",49.0252990722656,-122.361000061035,195,"-8","A","America/Vancouver","airport","OurAirports"
176,"Whitehorse / Erik Nielsen International Airport","Whitehorse","Canada","YXY","CYXY",60.7095985413,-135.067001343,2317,"-8","A","America/Vancouver","airport","OurAirports"
177,"North Bay Jack Garland Airport","North Bay","Canada","YYB","CYYB",46.363602,-79.422798,1215,"-5","A","America/Toronto","airport","OurAirports"
178,"Calgary International Airport","Calgary","Canada","YYC","CYYC",51.113899231,-114.019996643,3557,"-7","A","America/Edmonton","airport","OurAirports"
179,"Smithers Airport","Smithers","Canada","YYD","CYYD",54.8246994018555,-127.182998657227,1712,"-8","A","America/Vancouver","airport","OurAirports"
180,"Fort Nelson Airport","Fort Nelson","Canada","YYE","CYYE",58.8363990784,-122.597000122,1253,"-8","A","America/Vancouver","airport","OurAirports"
181,"Penticton Airport","Penticton","Canada","YYF","CYYF",49.4631004333496,-119.601997375488,1129,"-8","A","America/Vancouver","airport","OurAirports"
182,"Charlottetown Airport","Charlottetown","Canada","YYG","CYYG",46.2900009155273,-63.1211013793945,160,"-4","A","America/Halifax","airport","OurAirports"
183,"Taloyoak Airport","Spence Bay","Canada","YYH","CYYH",69.5466995239,-93.5766983032,92,"-7","A","America/Edmonton","airport","OurAirports"
184,"Victoria International Airport","Victoria","Canada","YYJ","CYYJ",48.646900177,-123.426002502,63,"-8","A","America/Vancouver","airport","OurAirports"
185,"Lynn Lake Airport","Lynn Lake","Canada","YYL","CYYL",56.863899230957,-101.075996398926,1170,"-6","A","America/Winnipeg","airport","OurAirports"
186,"Swift Current Airport","Swift Current","Canada","YYN","CYYN",50.2919006348,-107.691001892,2680,"-6","N","America/Regina","airport","OurAirports"
187,"Churchill Airport","Churchill","Canada","YYQ","CYYQ",58.739200592041,-94.0650024414062,94,"-6","A","America/Winnipeg","airport","OurAirports"
188,"Goose Bay Airport","Goose Bay","Canada","YYR","CYYR",53.3191986084,-60.4258003235,160,"-4","A","America/Halifax","airport","OurAirports"
189,"St. John's International Airport","St. John's","Canada","YYT","CYYT",47.618598938,-52.7518997192,461,"-3.5","A","America/St_Johns","airport","OurAirports"
190,"Kapuskasing Airport","Kapuskasing","Canada","YYU","CYYU",49.4138984680176,-82.4674987792969,743,"-5","A","America/Toronto","airport","OurAirports"
191,"Armstrong Airport","Armstrong","Canada","YYW","CYYW",50.2902984619141,-88.9096984863281,1058,"-5","A","America/Toronto","airport","OurAirports"
192,"Mont Joli Airport","Mont Joli","Canada","YYY","CYYY",48.6086006164551,-68.2080993652344,172,"-5","A","America/Toronto","airport","OurAirports"
193,"Lester B. Pearson International Airport","Toronto","Canada","YYZ","CYYZ",43.6772003174,-79.6305999756,569,"-5","A","America/Toronto","airport","OurAirports"
194,"Downsview Airport","Toronto","Canada","YZD","CYZD",43.7425003051758,-79.4655990600586,652,"-5","A","America/Toronto","airport","OurAirports"
195,"Gore Bay Manitoulin Airport","Gore Bay","Canada","YZE","CYZE",45.8852996826172,-82.5678024291992,635,"-5","A","America/Toronto","airport","OurAirports"
196,"Yellowknife Airport","Yellowknife","Canada","YZF","CYZF",62.4627990722656,-114.440002441406,675,"-7","A","America/Edmonton","airport","OurAirports"
197,"Slave Lake Airport","Slave Lake","Canada","YZH","CYZH",55.2930984497,-114.777000427,1912,"-7","A","America/Edmonton","airport","OurAirports"
198,"Sandspit Airport","Sandspit","Canada","YZP","CYZP",53.2542991638,-131.813995361,21,"-8","A","America/Vancouver","airport","OurAirports"
199,"Chris Hadfield Airport","Sarnia","Canada","YZR","CYZR",42.9994010925293,-82.3088989257812,594,"-5","A","America/Toronto","airport","OurAirports"
200,"Port Hardy Airport","Port Hardy","Canada","YZT","CYZT",50.6805992126465,-127.366996765137,71,"-8","A","America/Vancouver","airport","OurAirports"
201,"Whitecourt Airport","Whitecourt","Canada","YZU","CYZU",54.1439018249512,-115.787002563477,2567,"-7","A","America/Edmonton","airport","OurAirports"
202,"Sept-Îles Airport","Sept-iles","Canada","YZV","CYZV",50.2233009338379,-66.2656021118164,180,"-5","A","America/Toronto","airport","OurAirports"
203,"Teslin Airport","Teslin","Canada","YZW","CYZW",60.1727981567383,-132.74299621582,2313,"-8","A","America/Vancouver","airport","OurAirports"
204,"CFB Greenwood","Greenwood","Canada","YZX","CYZX",44.9844017028809,-64.9169006347656,92,"-4","A","America/Halifax","airport","OurAirports"
205,"Faro Airport","Faro","Canada","ZFA","CZFA",62.2075004577637,-133.376007080078,2351,"-8","A","America/Vancouver","airport","OurAirports"
206,"Fort Mcpherson Airport","Fort Mcpherson","Canada","ZFM","CZFM",67.4075012207031,-134.860992431641,116,"-7","A","America/Edmonton","airport","OurAirports"
4094,"Ekati Airport","Ekati","Canada","YOA","CYOA",64.6988983154,-110.614997864,1536,"-7","A","America/Edmonton","airport","OurAirports"
4106,"Victoria Harbour Seaplane Base","Victoria","Canada","YWH","CYWH",48.4249858939,-123.388867378,0,"-8","A","America/Vancouver","airport","OurAirports"
4236,"Aklavik/Freddie Carmichael Airport","Aklavik","Canada","LAK","CYKD",68.223297,-135.00599,23,"-7","A","America/Edmonton","airport","OurAirports"
4237,"Déline Airport","Deline","Canada","YWJ","CYWJ",65.2110977172852,-123.435997009277,703,"-7","A","America/Edmonton","airport","OurAirports"
4238,"Tulita Airport","Tulita","Canada","ZFN","CZFN",64.909697,-125.572998,332,"-7","A","America/Edmonton","airport","OurAirports"
4239,"Fort Good Hope Airport","Fort Good Hope","Canada","YGH","CYGH",66.2407989501953,-128.651000976562,268,"-7","A","America/Edmonton","airport","OurAirports"
4244,"Paulatuk (Nora Aliqatchialuk Ruben) Airport","Paulatuk","Canada","YPC","CYPC",69.3608381154,-124.075469971,15,"-7","A","America/Edmonton","airport","OurAirports"
5456,"Whistler/Green Lake Water Aerodrome","Whistler","Canada","YWS","CAE5",50.1436004639,-122.948997498,2100,"-8","A","America/Vancouver","airport","OurAirports"
5457,"Anahim Lake Airport","Anahim Lake","Canada","YAA","CAJ4",52.4524993896484,-125.303001403809,3635,"-8","A","America/Vancouver","airport","OurAirports"
5458,"Williams Harbour Airport","Williams Harbour","Canada","YWM","CCA6",52.5668983459473,-55.7846984863281,70,"-3.5","A","America/St_Johns","airport","OurAirports"
5459,"St. Lewis (Fox Harbour) Airport","St. Lewis","Canada","YFX","CCK4",52.3727989196777,-55.673900604248,74,"-3.5","A","America/St_Johns","airport","OurAirports"
5460,"Port Hope Simpson Airport","Port Hope Simpson","Canada","YHA","CCP4",52.5280990600586,-56.2860984802246,347,"-3.5","A","America/St_Johns","airport","OurAirports"
5461,"Rigolet Airport","Rigolet","Canada","YRG","CCZ2",54.1796989440918,-58.4575004577637,180,"-4","A","America/Halifax","airport","OurAirports"
5462,"Colville Lake Airport","Colville Lake","Canada","YCK","CEB3",67.0392,-126.08,850,"-7","A","America/Edmonton","airport","OurAirports"
5463,"Whatì Airport","Whatì","Canada","YLE","CEM3",63.1316986083984,-117.246002197266,882,"-7","A","America/Edmonton","airport","OurAirports"
5464,"Summer Beaver Airport","Summer Beaver","Canada","SUR","CJV7",52.7085990905762,-88.5419006347656,832,"-5","A","America/Toronto","airport","OurAirports"
5465,"Wapekeka Airport","Angling Lake","Canada","YAX","CKB6",53.8492012023926,-89.5793991088867,712,"-6","A","America/Winnipeg","airport","OurAirports"
5466,"Wunnumin Lake Airport","Wunnumin Lake","Canada","WNN","CKL3",52.8939018249512,-89.2891998291016,819,"-5","A","America/Toronto","airport","OurAirports"
5467,"North Spirit Lake Airport","North Spirit Lake","Canada","YNO","CKQ3",52.4900016784668,-92.9710998535156,1082,"-6","A","America/Winnipeg","airport","OurAirports"
5468,"Bearskin Lake Airport","Bearskin Lake","Canada","XBE","CNE3",53.9655990600586,-91.0271987915039,800,"-6","A","America/Winnipeg","airport","OurAirports"
5469,"Kingfisher Lake Airport","Kingfisher Lake","Canada","KIF","CNM5",53.0125007629395,-89.8553009033203,866,"-5","A","America/Toronto","airport","OurAirports"
5470,"Ogoki Post Airport","Ogoki Post","Canada","YOG","CNT3",51.6585998535,-85.9017028809,594,"-5","A","America/Toronto","airport","OurAirports"
5471,"Poplar Hill Airport","Poplar Hill","Canada","YHP","CPV7",52.1133,-94.2556,1095,"-6","A","America/Winnipeg","airport","OurAirports"
5472,"Chisasibi Airport","Chisasibi","Canada","YKU","CSU2",53.8055992126465,-78.9169006347656,43,"-5","A","America/Toronto","airport","OurAirports"
5473,"Tête-à-la-Baleine Airport","Tête-à-la-Baleine","Canada","ZTB","CTB6",50.6744003295898,-59.3835983276367,107,"-4","A","America/Blanc-Sablon","airport","OurAirports"
5474,"La Tabatière Airport","La Tabatière","Canada","ZLT","CTU5",50.8307991027832,-58.9756011962891,102,"-4","A","America/Blanc-Sablon","airport","OurAirports"
5478,"Cat Lake Airport","Cat Lake","Canada","YAC","CYAC",51.7271995544434,-91.8244018554688,1344,"-6","A","America/Winnipeg","airport","OurAirports"
5479,"Fort Frances Municipal Airport","Fort Frances","Canada","YAG","CYAG",48.6542015075684,-93.439697265625,1125,"-6","A","America/Winnipeg","airport","OurAirports"
5480,"Kasabonika Airport","Kasabonika","Canada","XKS","CYAQ",53.5247001647949,-88.6427993774414,672,"-5","A","America/Toronto","airport","OurAirports"
5481,"Kangirsuk Airport","Kangirsuk","Canada","YKG","CYAS",60.0271987915039,-69.9991989135742,403,"-5","A","America/Toronto","airport","OurAirports"
5482,"Attawapiskat Airport","Attawapiskat","Canada","YAT","CYAT",52.9275016784668,-82.4319000244141,31,"-5","A","America/Toronto","airport","OurAirports"
5484,"Uranium City Airport","Uranium City","Canada","YBE","CYBE",59.5614013671875,-108.481002807617,1044,"-6","N","America/Regina","airport","OurAirports"
5485,"Lourdes de Blanc Sablon Airport","Lourdes-De-Blanc-Sablon","Canada","YBX","CYBX",51.4435997009,-57.1852989197,121,"-4","A","America/Blanc-Sablon","airport","OurAirports"
5486,"Cartwright Airport","Cartwright","Canada","YRF","CYCA",53.6828002929688,-57.0419006347656,40,"-4","A","America/Halifax","airport","OurAirports"
5487,"Chesterfield Inlet Airport","Chesterfield Inlet","Canada","YCS","CYCS",63.3469009399,-90.7311019897,32,"-6","A","America/Winnipeg","airport","OurAirports"
5488,"Nain Airport","Nain","Canada","YDP","CYDP",56.5491981506348,-61.6803016662598,22,"-4","A","America/Halifax","airport","OurAirports"
5489,"Fort Severn Airport","Fort Severn","Canada","YER","CYER",56.0189018249512,-87.6761016845703,48,"-5","A","America/Toronto","airport","OurAirports"
5490,"Fort Albany Airport","Fort Albany","Canada","YFA","CYFA",52.2014007568359,-81.6968994140625,48,"-5","A","America/Toronto","airport","OurAirports"
5491,"Fort Hope Airport","Fort Hope","Canada","YFH","CYFH",51.5619010925293,-87.9077987670898,899,"-5","A","America/Toronto","airport","OurAirports"
5492,"Makkovik Airport","Makkovik","Canada","YMN","CYFT",55.0769004821777,-59.1864013671875,234,"-4","A","America/Halifax","airport","OurAirports"
5493,"Texada Gillies Bay Airport","Texada","Canada","YGB","CYGB",49.6941986083984,-124.517997741699,326,"-8","A","America/Vancouver","airport","OurAirports"
5494,"Gods Lake Narrows Airport","Gods Lake Narrows","Canada","YGO","CYGO",54.5588989257812,-94.4914016723633,617,"-6","A","America/Winnipeg","airport","OurAirports"
5495,"Igloolik Airport","Igloolik","Canada","YGT","CYGT",69.3647003174,-81.8161010742,174,"-5","A","America/Toronto","airport","OurAirports"
5496,"Kuujjuarapik Airport","Kuujjuarapik","Canada","YGW","CYGW",55.2818984985352,-77.7652969360352,34,"-5","A","America/Toronto","airport","OurAirports"
5497,"Gillam Airport","Gillam","Canada","YGX","CYGX",56.3574981689453,-94.7106018066406,476,"-6","A","America/Winnipeg","airport","OurAirports"
5498,"Grise Fiord Airport","Grise Fiord","Canada","YGZ","CYGZ",76.4261016846,-82.9092025757,146,"-5","A","America/Toronto","airport","OurAirports"
5499,"Quaqtaq Airport","Quaqtaq","Canada","YQC","CYHA",61.0463981628418,-69.6177978515625,103,"-5","A","America/Toronto","airport","OurAirports"
5500,"Vancouver Harbour Water Aerodrome","Vancouver","Canada","CXH","CYHC",49.2943992615,-123.111000061,0,"-8","A","America/Vancouver","airport","OurAirports"
5501,"Nemiscau Airport","Nemiscau","Canada","YNS","CYHH",51.6911010742188,-76.1355972290039,802,"-5","A","America/Toronto","airport","OurAirports"
5502,"Hopedale Airport","Hopedale","Canada","YHO","CYHO",55.448299407959,-60.2285995483398,39,"-4","A","America/Halifax","airport","OurAirports"
5503,"Chevery Airport","Chevery","Canada","YHR","CYHR",50.4688987731934,-59.6366996765137,39,"-4","A","America/Blanc-Sablon","airport","OurAirports"
5504,"Ivujivik Airport","Ivujivik","Canada","YIK","CYIK",62.4173011779785,-77.9253005981445,126,"-5","A","America/Toronto","airport","OurAirports"
5505,"Island Lake Airport","Island Lake","Canada","YIV","CYIV",53.8572006225586,-94.6536026000977,770,"-6","A","America/Winnipeg","airport","OurAirports"
5506,"Akulivik Airport","Akulivik","Canada","AKV","CYKO",60.8185997009277,-78.1485977172852,75,"-5","A","America/Toronto","airport","OurAirports"
5507,"Waskaganish Airport","Waskaganish","Canada","YKQ","CYKQ",51.4733009338379,-78.75830078125,80,"-5","A","America/Toronto","airport","OurAirports"
5508,"Aupaluk Airport","Aupaluk","Canada","YPJ","CYLA",59.2966995239258,-69.5997009277344,119,"-5","A","America/Toronto","airport","OurAirports"
5509,"Kimmirut Airport","Kimmirut","Canada","YLC","CYLC",62.8499984741,-69.8833007812,175,"-5","A","America/Toronto","airport","OurAirports"
5510,"Lansdowne House Airport","Lansdowne House","Canada","YLH","CYLH",52.1955986022949,-87.934196472168,834,"-5","A","America/Toronto","airport","OurAirports"
5512,"Kangiqsualujjuaq (Georges River) Airport","Kangiqsualujjuaq","Canada","XGR","CYLU",58.7113990783691,-65.9927978515625,215,"-5","A","America/Toronto","airport","OurAirports"
5513,"Mary's Harbour Airport","Mary's Harbour","Canada","YMH","CYMH",52.3027992248535,-55.8471984863281,38,"-3.5","A","America/St_Johns","airport","OurAirports"
5514,"Chapais Airport","Chibougamau","Canada","YMT","CYMT",49.771900177002,-74.5280990600586,1270,"-5","A","America/Toronto","airport","OurAirports"
5515,"Umiujaq Airport","Umiujaq","Canada","YUD","CYMU",56.5360984802246,-76.5183029174805,250,"-5","A","America/Toronto","airport","OurAirports"
5516,"Wemindji Airport","Wemindji","Canada","YNC","CYNC",53.0106010437012,-78.8311004638672,66,"-5","A","America/Toronto","airport","OurAirports"
5517,"Norway House Airport","Norway House","Canada","YNE","CYNE",53.9583015441895,-97.8442001342773,734,"-6","A","America/Winnipeg","airport","OurAirports"
5518,"Points North Landing Airport","Points North Landing","Canada","YNL","CYNL",58.2766990661621,-104.082000732422,1605,"-6","N","America/Regina","airport","OurAirports"
5519,"Oxford House Airport","Oxford House","Canada","YOH","CYOH",54.9333000183105,-95.2789001464844,663,"-6","A","America/Winnipeg","airport","OurAirports"
5520,"Inukjuak Airport","Inukjuak","Canada","YPH","CYPH",58.4719009399414,-78.0768966674805,83,"-5","A","America/Toronto","airport","OurAirports"
5521,"Pikangikum Airport","Pikangikum","Canada","YPM","CYPM",51.8196983337402,-93.9732971191406,1114,"-6","A","America/Winnipeg","airport","OurAirports"
5522,"Peawanuck Airport","Peawanuck","Canada","YPO","CYPO",54.9880981445312,-85.4432983398438,173,"-5","A","America/Toronto","airport","OurAirports"
5523,"Powell River Airport","Powell River","Canada","YPW","CYPW",49.8342018127441,-124.5,425,"-8","A","America/Vancouver","airport","OurAirports"
5524,"The Pas Airport","The Pas","Canada","YQD","CYQD",53.9714012145996,-101.091003417969,887,"-6","A","America/Winnipeg","airport","OurAirports"
5525,"Nakina Airport","Nakina","Canada","YQN","CYQN",50.1828002929688,-86.696403503418,1057,"-5","A","America/Toronto","airport","OurAirports"
5526,"Rae Lakes Airport","Gamètì","Canada","YRA","CYRA",64.116096496582,-117.309997558594,723,"-7","A","America/Edmonton","airport","OurAirports"
5527,"Red Lake Airport","Red Lake","Canada","YRL","CYRL",51.0668983459473,-93.793098449707,1265,"-6","A","America/Winnipeg","airport","OurAirports"
5528,"Stony Rapids Airport","Stony Rapids","Canada","YSF","CYSF",59.250301361084,-105.841003417969,805,"-6","N","America/Regina","airport","OurAirports"
5529,"Sanikiluaq Airport","Sanikiluaq","Canada","YSK","CYSK",56.5377998352,-79.2466964722,104,"-5","A","\N","airport","OurAirports"
5530,"St. Theresa Point Airport","St. Theresa Point","Canada","YST","CYST",53.8456001281738,-94.8518981933594,773,"-6","A","America/Winnipeg","airport","OurAirports"
5531,"Big Trout Lake Airport","Big Trout Lake","Canada","YTL","CYTL",53.817798614502,-89.8968963623047,729,"-6","A","America/Winnipeg","airport","OurAirports"
5532,"Deer Lake Airport","Deer Lake","Canada","YVZ","CYVZ",52.6557998657227,-94.0614013671875,1092,"-6","A","America/Winnipeg","airport","OurAirports"
5533,"Webequie Airport","Webequie","Canada","YWP","CYWP",52.9593933975,-87.3748683929,685,"-5","A","America/Toronto","airport","OurAirports"
5534,"Whale Cove Airport","Whale Cove","Canada","YXN","CYXN",62.2400016785,-92.5980987549,40,"-6","A","America/Winnipeg","airport","OurAirports"
5535,"Salluit Airport","Salluit","Canada","YZG","CYZG",62.1794013977051,-75.6671981811523,743,"-5","A","America/Toronto","airport","OurAirports"
5536,"York Landing Airport","York Landing","Canada","ZAC","CZAC",56.0894012451172,-96.0892028808594,621,"-6","A","America/Winnipeg","airport","OurAirports"
5537,"Ilford Airport","Ilford","Canada","ILF","CZBD",56.0614013672,-95.613899231,642,"-6","A","America/Winnipeg","airport","OurAirports"
5538,"Bathurst Airport","Bathurst","Canada","ZBF","CZBF",47.629699707,-65.738899231,193,"-4","A","America/Halifax","airport","OurAirports"
5539,"Eastmain River Airport","Eastmain River","Canada","ZEM","CZEM",52.2263984680176,-78.5224990844727,24,"-5","A","America/Toronto","airport","OurAirports"
5540,"Fond-Du-Lac Airport","Fond-Du-Lac","Canada","ZFD","CZFD",59.334400177002,-107.181999206543,814,"-6","N","America/Regina","airport","OurAirports"
5541,"Gods River Airport","Gods River","Canada","ZGI","CZGI",54.8396987915039,-94.0785980224609,627,"-6","A","America/Winnipeg","airport","OurAirports"
5542,"Swan River Airport","Swan River","Canada","ZJN","CZJN",52.1206016540527,-101.236000061035,1100,"-6","A","America/Winnipeg","airport","OurAirports"
5543,"Kashechewan Airport","Kashechewan","Canada","ZKE","CZKE",52.2825012207031,-81.6778030395508,35,"-5","A","America/Toronto","airport","OurAirports"
5544,"Muskrat Dam Airport","Muskrat Dam","Canada","MSA","CZMD",53.4413986206055,-91.7628021240234,911,"-6","A","America/Winnipeg","airport","OurAirports"
5545,"Masset Airport","Masset","Canada","ZMT","CZMT",54.0275001525879,-132.125,25,"-8","A","America/Vancouver","airport","OurAirports"
5546,"Sachigo Lake Airport","Sachigo Lake","Canada","ZPB","CZPB",53.8911018371582,-92.196403503418,876,"-6","A","America/Winnipeg","airport","OurAirports"
5547,"Round Lake (Weagamow Lake) Airport","Round Lake","Canada","ZRJ","CZRJ",52.9435997009277,-91.3127975463867,974,"-6","A","America/Winnipeg","airport","OurAirports"
5548,"Sandy Lake Airport","Sandy Lake","Canada","ZSJ","CZSJ",53.0642013549805,-93.3443984985352,951,"-6","A","America/Winnipeg","airport","OurAirports"
5549,"Shamattawa Airport","Shamattawa","Canada","ZTM","CZTM",55.8656005859375,-92.0813980102539,289,"-6","A","America/Winnipeg","airport","OurAirports"
5550,"Churchill Falls Airport","Churchill Falls","Canada","ZUM","CZUM",53.5619010925293,-64.1063995361328,1442,"-4","A","America/Halifax","airport","OurAirports"
5551,"Wollaston Lake Airport","Wollaston Lake","Canada","ZWL","CZWL",58.1068992614746,-103.171997070312,1360,"-6","N","America/Regina","airport","OurAirports"
6727,"Puvirnituq Airport","Puvirnituq","Canada","YPX","CYPX",60.0505981445312,-77.2869033813477,74,"-5","A","America/Toronto","airport","OurAirports"
6728,"Tasiujaq Airport","Tasiujaq","Canada","YTQ","CYTQ",58.6678009033203,-69.9558029174805,122,"-5","A","America/Toronto","airport","OurAirports"
6738,"Bella Coola Airport","Bella Coola","Canada","QBC","CYBD",52.387501,-126.596001,117,"-8","A","America/Vancouver","airport","OurAirports"
6775,"Bonaventure Airport","Bonaventure","Canada","YVB","CYVB",48.0710983276367,-65.4602966308594,123,"-5","A","America/Toronto","airport","OurAirports"
6789,"St Augustin Airport","St-Augustin","Canada","YIF","CYIF",51.2117004395,-58.6582984924,20,"-4","A","America/Blanc-Sablon","airport","OurAirports"
7012,"Prince Rupert/Seal Cove Seaplane Base","Prince Rupert","Canada","ZSW","CZSW",54.3333015441895,-130.283004760742,0,"-8","A","America/Vancouver","airport","OurAirports"
7022,"Berens River Airport","Berens River","Canada","YBV","CYBV",52.358898,-97.018303,728,"-6","A","America/Winnipeg","airport","OurAirports"
7060,"La Macaza / Mont-Tremblant International Inc Airport","Mont-Tremblant","Canada","YTM","CYFJ",46.4094009399,-74.7799987793,827,"-5","A","America/Toronto","airport","OurAirports"
7251,"Natuashish Airport","Natuashish","Canada","YNP","CNH2",55.913898,-61.184399,30,"-4","A","America/Halifax","airport","OurAirports"
7252,"Postville Airport","Postville","Canada","YSO","CCD4",54.9105,-59.78507,193,"-4","A","America/Halifax","airport","OurAirports"
7253,"Kangiqsujuaq (Wakeham Bay) Airport","Kangiqsujuaq","Canada","YWB","CYKG",61.5886001587,-71.929397583,501,"-5","A","America/Toronto","airport","OurAirports"
7254,"Alma Airport","Alma","Canada","YTF","CYTF",48.5088996887,-71.6418991089,445,"-5","A","America/Toronto","airport","OurAirports"
7255,"Havre St Pierre Airport","Havre-Saint-Pierre","Canada","YGV","CYGV",50.2818984985352,-63.611400604248,124,"-5","A","America/Toronto","airport","OurAirports"
7256,"Rimouski Airport","Rimouski","Canada","YXK","CYXK",48.478099822998,-68.4969024658203,82,"-5","A","America/Toronto","airport","OurAirports"
7259,"Tadoule Lake Airport","Tadoule Lake","Canada","XTL","CYBQ",58.7061,-98.512199,923,"-6","A","America/Winnipeg","airport","OurAirports"
7260,"Lac Brochet Airport","Lac Brochet","Canada","XLB","CZWH",58.6175003052,-101.46900177,1211,"-6","A","America/Winnipeg","airport","OurAirports"
7261,"South Indian Lake Airport","South Indian Lake","Canada","XSI","CZSN",56.7928009033,-98.9072036743,951,"-6","A","America/Winnipeg","airport","OurAirports"
7262,"Brochet Airport","Brochet","Canada","YBT","CYBT",57.8894,-101.679001,1136,"-6","A","America/Winnipeg","airport","OurAirports"
7263,"Little Grand Rapids Airport","Little Grand Rapids","Canada","ZGR","CZGR",52.0456008911133,-95.4657974243164,1005,"-6","A","America/Winnipeg","airport","OurAirports"
7264,"Cross Lake (Charlie Sinclair Memorial) Airport","Cross Lake","Canada","YCR","CYCR",54.6105995178223,-97.7608032226562,709,"-6","A","America/Winnipeg","airport","OurAirports"
7265,"Red Sucker Lake Airport","Red Sucker Lake","Canada","YRS","CYRS",54.1671981811523,-93.5571975708008,729,"-6","A","America/Winnipeg","airport","OurAirports"
7266,"Rainbow Lake Airport","Rainbow Lake","Canada","YOP","CYOP",58.4914016723633,-119.407997131348,1759,"-7","A","America/Edmonton","airport","OurAirports"
7267,"Bonnyville Airport","Bonnyville","Canada","YBY","CYBF",54.304199,-110.744003,1836,"-7","A","America/Edmonton","airport","OurAirports"
7268,"Nanaimo Harbour Water Airport","Nanaimo","Canada","ZNA","CAC8",49.1833000183,-123.949996948,0,"-8","A","America/Vancouver","airport","OurAirports"
7269,"Ganges Seaplane Base","Ganges","Canada","YGG","CAX6",48.8545,-123.4969,0,"-8","A","America/Vancouver","airport","OurAirports"
7273,"Boundary Bay Airport","Boundary Bay","Canada","YDT","CZBB",49.0742,-123.012001,6,"-8","A","America/Vancouver","airport","OurAirports"
7274,"Langley Airport","Langley Township","Canada","YLY","CYNJ",49.1007995605,-122.630996704,34,"-8","A","America/Vancouver","airport","OurAirports"
7277,"Wekweètì Airport","Wekweeti","Canada","YFJ","CFJ2",64.190804,-114.077002,1208,"-7","A","America/Edmonton","airport","OurAirports"
7521,"Yarmouth Airport","Yarmouth","Canada","YQI","CYQI",43.8269004821777,-66.0880966186523,141,"-4","A","America/Halifax","airport","OurAirports"
7902,"Toronto/Oshawa Executive Airport","Oshawa","Canada","YOO","CYOO",43.922798,-78.894997,460,"-5","A","America/Toronto","airport","OurAirports"
8033,"Revelstoke Airport","Revelstoke","Canada","YRV","CYRV",50.9667015076,-118.182998657,1459,"-8","A","America/Vancouver","airport","OurAirports"
8147,"Pembroke Airport","Pembroke","Canada","YTA","CYTA",45.8643989562988,-77.2517013549805,529,"-5","A","America/Toronto","airport","OurAirports"
8149,"Suffield Heliport","Suffield","Canada","YSD","CYSD",50.2667007446289,-111.182998657227,2525,"-7","A","America/Edmonton","airport","OurAirports"
8177,"Cornwall Regional Airport","Cornwall","Canada","YCC","CYCC",45.0928001403809,-74.5633010864258,175,"-5","A","America/Toronto","airport","OurAirports"
8216,"La Romaine Airport","La Romaine","Canada","ZGS","CTT5",50.259701,-60.679401,90,"-4","A","America/Blanc-Sablon","airport","OurAirports"
8217,"Kegaska Airport","Kegaska","Canada","ZKG","CTK6",50.1958007812,-61.2658004761,32,"-4","A","America/Blanc-Sablon","airport","OurAirports"
8218,"Black Tickle Airport","Black Tickle","Canada","YBI","CCE4",53.4693984985,-55.7849998474,57,"-4","A","America/Halifax","airport","OurAirports"
8223,"Trail Airport","Trail","Canada","YZZ","CAD4",49.0555992126,-117.60900116,1427,"-8","A","America/Vancouver","airport","OurAirports"
8225,"Old Arctic Bay Airport","Arctic Bay","Canada","YAB","CJX7",73.0058922479,-85.0325489044,100,"-6","A","America/Winnipeg","airport","OurAirports"
8355,"Keewaywin Airport","Keewaywin","Canada","KEW","CPV8",52.9911003113,-92.8364028931,988,"-6","A","America/Winnipeg","airport","OurAirports"
8356,"Marathon Airport","Marathon","Canada","YSP","CYSP",48.755298614502,-86.3443984985352,1035,"-5","A","America/Toronto","airport","OurAirports"
8357,"Hearst René Fontaine Municipal Airport","Hearst","Canada","YHF","CYHF",49.7141990661621,-83.6860961914062,827,"-5","A","America/Toronto","airport","OurAirports"
8358,"Hornepayne Municipal Airport","Hornepayne","Canada","YHN","CYHN",49.1930999755859,-84.758903503418,1099,"-5","A","America/Toronto","airport","OurAirports"
8359,"Kirkland Lake Airport","Kirkland Lake","Canada","YKX","CYKX",48.2103004455566,-79.9813995361328,1157,"-5","A","America/Toronto","airport","OurAirports"
8360,"Manitouwadge Airport","Manitouwadge","Canada","YMG","CYMG",49.0839004516602,-85.8606033325195,1198,"-5","A","America/Toronto","airport","OurAirports"
8361,"Wawa Airport","Wawa","Canada","YXZ","CYXZ",47.9667015075684,-84.7866973876953,942,"-5","A","America/Toronto","airport","OurAirports"
8362,"Manitoulin East Municipal Airport","Manitowaning","Canada","YEM","CYEM",45.8428001403809,-81.8581008911133,869,"-5","A","America/Toronto","airport","OurAirports"
8404,"South Cariboo Region / 108 Mile Airport","108 Mile Ranch","Canada","ZMH","CZML",51.7360992432,-121.333000183,3126,"-8","A","America/Vancouver","airport","OurAirports"
8423,"Gimli Industrial Park Airport","Gimli","Canada","YGM","CYGM",50.628101348877,-97.0432968139648,753,"-6","A","America/Winnipeg","airport","OurAirports"
8477,"Bob Quinn Lake Airport","Bob Quinn Lake","Canada","YBO","CBW4",56.9667015076,-130.25,2000,"-8","U","America/Vancouver","airport","OurAirports"
8663,"Trois-Rivières Airport","Trois Rivieres","Canada","YRQ","CYRQ",46.3527984619141,-72.6793975830078,199,"-5","A","America/Toronto","airport","OurAirports"
8963,"Bromont (Roland Desourdy) Airport","Bromont","Canada","ZBM","CZBM",45.2907981873,-72.7414016724,375,"-5","A","America/Toronto","airport","OurAirports"
9088,"Cochrane Airport","Cochrane","Canada","YCN","CYCN",49.105598449707,-81.0136032104492,861,"-5","A","America/Toronto","airport","OurAirports"
9236,"Barrie-Orillia (Lake Simcoe Regional Airport)","Barrie-Orillia","Canada","YLK","CYLS",44.4852981567,-79.5556030273,972,"-5","A","America/Toronto","airport","OurAirports"
9241,"Niagara District Airport","Saint Catherines","Canada","YCM","CYSN",43.1916999816895,-79.1716995239258,321,"-5","A","America/Toronto","airport","OurAirports"
9247,"Parry Sound Area Municipal Airport","Parry Sound","Canada","YPD","CNK4",45.2575,-79.829697,832,"-5","A","America/Toronto","airport","OurAirports"
9749,"Bedwell Harbour Seaplane Base","Bedwell Harbour","Canada","YBW","CAB3",48.75,-123.233001709,0,"-8","A","America/Vancouver","airport","OurAirports"
9796,"Elliot Lake Municipal Airport","ELLIOT LAKE","Canada","YEL","CYEL",46.351398468,-82.5614013672,1087,"-5","A","America/Toronto","airport","OurAirports"
9937,"Gratiot Community Airport","Kamloops","Canada","AMN","KAMN",43.322101593,-84.68800354,754,"-7","A","\N","airport","OurAirports"
10137,"Dunnville Airport","Dunnville","Canada","DU9","CDU9",42.8722000122,-79.5958023071,600,"-5","A","\N","airport","OurAirports"
11053,"Fort Mackay / Horizon Airport","Wood Buffalo","Canada","HZP","CYNR",57.3816986084,-111.700996399,916,"-7","A","\N","airport","OurAirports"
11127,"Banff Airport","Banff","Canada","YBA","CYBA",51.2073404699,-115.541861057,4583,"-7","A","\N","airport","OurAirports"
11583,"Hinton/Jasper-Hinton Airport","Hinton","Canada","YJP","CEC4",53.3191986084,-117.752998352,4006,"-7","A","\N","airport","OurAirports"
11702,"Opapimiskan Lake Airport","Musselwhite Mine","Canada","YBS","CKM8",52.6067008972,-90.3768997192,1023,"-5","A","\N","airport","OurAirports"
11722,"Squamish Airport","Squamish","Canada","YSE","CYSE",49.7817001343,-123.162002563,171,"-8","A","\N","airport","OurAirports"
11743,"La Grande-4 Airport","La Grande-4","Canada","YAH","CYAH",53.754699707,-73.6753005981,1005,"\N","\N","\N","airport","OurAirports"
11744,"Alert Bay Airport","Alert Bay","Canada","YAL","CYAL",50.5821990966797,-126.916000366211,240,"\N","\N","\N","airport","OurAirports"
11748,"Centralia / James T. Field Memorial Aerodrome","Centralia","Canada","YCE","CYCE",43.285599,-81.508301,824,"\N","\N","\N","airport","OurAirports"
11750,"Chetwynd Airport","Chetwynd","Canada","YCQ","CYCQ",55.687198638916,-121.626998901367,2000,"\N","\N","\N","airport","OurAirports"
11751,"Ross River Airport","Ross River","Canada","XRR","CYDM",61.9706001282,-132.42300415,2314,"\N","\N","\N","airport","OurAirports"
11752,"Dolbeau St Felicien Airport","Dolbeau-St-Félicien","Canada","YDO","CYDO",48.778499603271,-72.375,372,"\N","\N","\N","airport","OurAirports"
11753,"Amos/Magny Airport","Amos","Canada","YEY","CYEY",48.563903,-78.249702,1068,"\N","\N","\N","airport","OurAirports"
11755,"Hope Airport","Hope","Canada","YHE","CYHE",49.3683013916,-121.498001099,128,"\N","\N","\N","airport","OurAirports"
11756,"Haines Junction Airport","Haines Junction","Canada","YHT","CYHT",60.7891998291016,-137.546005249023,2150,"\N","\N","\N","airport","OurAirports"
11757,"Digby / Annapolis Regional Airport","Digby","Canada","YDG","CYID",44.5458450365,-65.7854247093,499,"\N","\N","\N","airport","OurAirports"
11758,"Fort Liard Airport","Fort Liard","Canada","YJF","CYJF",60.2358016968,-123.46900177,708,"\N","\N","\N","airport","OurAirports"
11759,"Key Lake Airport","Key Lake","Canada","YKJ","CYKJ",57.2560997009277,-105.61799621582,1679,"\N","\N","\N","airport","OurAirports"
11760,"Leaf Rapids Airport","Leaf Rapids","Canada","YLR","CYLR",56.5133018493652,-99.9852981567383,959,"\N","\N","\N","airport","OurAirports"
11761,"Matane Airport","Matane","Canada","YME","CYME",48.8568992614746,-67.4533004760742,102,"\N","\N","\N","airport","OurAirports"
11762,"Charlevoix Airport","Charlevoix","Canada","YML","CYML",47.5974998474121,-70.2238998413086,977,"\N","\N","\N","airport","OurAirports"
11764,"Owen Sound / Billy Bishop Regional Airport","Owen Sound","Canada","YOS","CYOS",44.5903015137,-80.8375015259,1007,"\N","\N","\N","airport","OurAirports"
11765,"Port Hawkesbury Airport","Port Hawkesbury","Canada","YPS","CYPD",45.6567001343,-61.3680992126,377,"\N","\N","\N","airport","OurAirports"
11766,"St Thomas Municipal Airport","St Thomas","Canada","YQS","CYQS",42.7700004577637,-81.1108016967773,778,"\N","\N","\N","airport","OurAirports"
11767,"Ottawa / Rockcliffe Airport","Ottawa","Canada","YRO","CYRO",45.4603004456,-75.6461029053,188,"\N","\N","\N","airport","OurAirports"
11769,"Smiths Falls-Montague (Russ Beach) Airport","Smiths Falls","Canada","YSH","CYSH",44.94580078125,-75.9405975341797,416,"\N","\N","\N","airport","OurAirports"
11770,"St Leonard Airport","St Leonard","Canada","YSL","CYSL",47.1575012207031,-67.8347015380859,793,"\N","\N","\N","airport","OurAirports"
11772,"Vernon Airport","Vernon","Canada","YVE","CYVK",50.2481002807617,-119.331001281738,1140,"\N","\N","\N","airport","OurAirports"
11773,"Beaver Creek Airport","Beaver Creek","Canada","YXQ","CYXQ",62.4103012084961,-140.867004394531,2131,"\N","\N","\N","airport","OurAirports"
11774,"Shuswap Regional Airport","Salmon Arm","Canada","YSN","CZAM",50.682802,-119.228996,1751,"\N","\N","\N","airport","OurAirports"
11775,"Kelsey Airport","Kelsey","Canada","KES","CZEE",56.0374984741,-96.5096969604,600,"\N","\N","\N","airport","OurAirports"
11776,"Pukatawagan Airport","Pukatawagan","Canada","XPK","CZFG",55.7491989136,-101.26599884,958,"\N","\N","\N","airport","OurAirports"
11777,"Grand Forks Airport","Grand Forks","Canada","ZGF","CZGF",49.0155982971191,-118.430999755859,1720,"\N","\N","\N","airport","OurAirports"
11778,"Jenpeg Airport","Jenpeg","Canada","ZJG","CZJG",54.5189018249512,-98.0460968017578,729,"\N","\N","\N","airport","OurAirports"
11779,"Thicket Portage Airport","Thicket Portage","Canada","YTD","CZLQ",55.3189010620117,-97.7078018188477,678,"\N","\N","\N","airport","OurAirports"
11780,"Pikwitonei Airport","Pikwitonei","Canada","PIW","CZMN",55.5889015197754,-97.1641998291016,630,"\N","\N","\N","airport","OurAirports"
11781,"Poplar River Airport","Poplar River","Canada","XPP","CZNG",52.9965258788,-97.2741937637,728,"\N","\N","\N","airport","OurAirports"
11782,"Pincher Creek Airport","Pincher Creek","Canada","WPC","CZPC",49.5205993652,-113.997001648,3903,"\N","\N","\N","airport","OurAirports"
11783,"Stewart Airport","Stewart","Canada","ZST","CZST",55.935410448,-129.982434511,24,"\N","\N","\N","airport","OurAirports"
11784,"Ignace Municipal Airport","Ignace","Canada","ZUC","CZUC",49.4296989440918,-91.7177963256836,1435,"\N","\N","\N","airport","OurAirports"
13342,"Doris Lake","Doris Lake","Canada","JOJ","CDL7",68.1252746582,-106.585281372,50,"-7","A","\N","airport","OurAirports"
13711,"Lutselk'e Airport","Lutselk'e","Canada","YSG","CYLK",62.418303,-110.681998,596,"\N","\N","\N","airport","OurAirports"
